{
    "links": {
        "self": "http://www.neowsapp.com/rest/v1/neo/3555017?api_key=iIulBulltgU6a56xZRHN4H3l9WmuAYTsLGpBGhQ2"
    },
    "id": "3555017",
    "neo_reference_id": "3555017",
    "name": "(2011 AD3)",
    "designation": "2011 AD3",
    "nasa_jpl_url": "http://ssd.jpl.nasa.gov/sbdb.cgi?sstr=3555017",
    "absolute_magnitude_h": 26.5,
    "estimated_diameter": {
        "kilometers": {
            "estimated_diameter_min": 0.0133215567,
            "estimated_diameter_max": 0.0297879063
        },
        "meters": {
            "estimated_diameter_min": 13.3215566698,
            "estimated_diameter_max": 29.7879062798
        },
        "miles": {
            "estimated_diameter_min": 0.008277629,
            "estimated_diameter_max": 0.0185093411
        },
        "feet": {
            "estimated_diameter_min": 43.7058959846,
            "estimated_diameter_max": 97.7293544391
        }
    },
    "is_potentially_hazardous_asteroid": false,
    "close_approach_data": [
        {
            "close_approach_date": "2010-12-29",
            "close_approach_date_full": "2010-Dec-29 13:05",
            "epoch_date_close_approach": 1293627900000,
            "relative_velocity": {
                "kilometers_per_second": "13.1309524849",
                "kilometers_per_hour": "47271.4289455338",
                "miles_per_hour": "29372.6276134068"
            },
            "miss_distance": {
                "astronomical": "0.0244384549",
                "lunar": "9.5065589561",
                "kilometers": "3655940.799131063",
                "miles": "2271696.2726241494"
            },
            "orbiting_body": "Earth"
        }
    ],
    "orbital_data": {
        "orbit_id": "5",
        "orbit_determination_date": "2017-04-06 08:55:05",
        "first_observation_date": "2011-01-04",
        "last_observation_date": "2011-01-04",
        "data_arc_in_days": null,
        "observations_used": 12,
        "orbit_uncertainty": "9",
        "minimum_orbit_intersection": ".0106325",
        "jupiter_tisserand_invariant": "2.888",
        "epoch_osculation": "2455565.5",
        "eccentricity": ".6872227496245318",
        "semi_major_axis": "2.877250217314202",
        "inclination": "1.516766322984562",
        "ascending_node_longitude": "298.202273000513",
        "orbital_period": "1782.645036061846",
        "perihelion_distance": ".8999384116137544",
        "perihelion_argument": "118.1663787786382",
        "aphelion_distance": "4.854562023014649",
        "perihelion_time": "2455531.434529066922",
        "mean_anomaly": "6.879423153697667",
        "mean_motion": ".201947102601704",
        "equinox": "J2000",
        "orbit_class": {
            "orbit_class_type": "APO",
            "orbit_class_description": "Near-Earth asteroid orbits which cross the Earth’s orbit similar to that of 1862 Apollo",
            "orbit_class_range": "a (semi-major axis) > 1.0 AU; q (perihelion) < 1.017 AU"
        }
    },
    "is_sentry_object": false
}